ONEWEB-0704             
1 61609U 24188R   26062.54337464 -.00000599  00000+0 -17532-2 0  9991
2 61609  87.8782  57.2761 0002834  89.9588 270.1864 13.10372397 69454
ONEWEB-0705             
1 61610U 24188S   26062.93013670 -.00000629  00000+0 -18381-2 0  9993
2 61610  87.8774  57.2125 0002687  67.8222 292.3190 13.10372511 61679
ONEWEB-0706             
1 61611U 24188T   26062.53341431 -.00000239  00000+0 -72216-3 0  9994
2 61611  87.8759  57.3046 0002472  85.0407 275.1002 13.10370091 69541
ONEWEB-0707             
1 61612U 24188U   26063.15090995 -.00000403  00000+0 -11903-2 0  9998
2 61612  87.8773  57.1679 0002464  86.5995 273.5414 13.10370253 69568
ONEWEB-0708             
1 61613U 24188V   26063.01645051 -.00000475  00000+0 -13973-2 0  9991
2 61613  87.8768  57.2233 0001985  70.7926 289.3416 13.10375588 69525
