[{"OBJECT_NAME":"ONEWEB-0704","OBJECT_ID":"2024-188R","EPOCH":"2026-03-03T13:02:27.568896","MEAN_MOTION":13.10372397,"ECCENTRICITY":0.0002834,"INCLINATION":87.8782,"RA_OF_ASC_NODE":57.2761,"ARG_OF_PERICENTER":89.9588,"MEAN_ANOMALY":270.1864,"EPHEMERIS_TYPE":0,"CLASSIFICATION_TYPE":"U","NORAD_CAT_ID":61609,"ELEMENT_SET_NO":999,"REV_AT_EPOCH":6945,"BSTAR":-0.0017532,"MEAN_MOTION_DOT":-5.99e-6,"MEAN_MOTION_DDOT":0},{"OBJECT_NAME":"ONEWEB-0705","OBJECT_ID":"2024-188S","EPOCH":"2026-03-03T22:19:23.810880","MEAN_MOTION":13.10372511,"ECCENTRICITY":0.0002687,"INCLINATION":87.8774,"RA_OF_ASC_NODE":57.2125,"ARG_OF_PERICENTER":67.8222,"MEAN_ANOMALY":292.319,"EPHEMERIS_TYPE":0,"CLASSIFICATION_TYPE":"U","NORAD_CAT_ID":61610,"ELEMENT_SET_NO":999,"REV_AT_EPOCH":6167,"BSTAR":-0.0018381,"MEAN_MOTION_DOT":-6.29e-6,"MEAN_MOTION_DDOT":0},{"OBJECT_NAME":"ONEWEB-0706","OBJECT_ID":"2024-188T","EPOCH":"2026-03-03T12:48:06.996384","MEAN_MOTION":13.10370091,"ECCENTRICITY":0.0002472,"INCLINATION":87.8759,"RA_OF_ASC_NODE":57.3046,"ARG_OF_PERICENTER":85.0407,"MEAN_ANOMALY":275.1002,"EPHEMERIS_TYPE":0,"CLASSIFICATION_TYPE":"U","NORAD_CAT_ID":61611,"ELEMENT_SET_NO":999,"REV_AT_EPOCH":6954,"BSTAR":-0.00072216,"MEAN_MOTION_DOT":-2.39e-6,"MEAN_MOTION_DDOT":0},{"OBJECT_NAME":"ONEWEB-0707","OBJECT_ID":"2024-188U","EPOCH":"2026-03-04T03:37:18.619680","MEAN_MOTION":13.10370253,"ECCENTRICITY":0.0002464,"INCLINATION":87.8773,"RA_OF_ASC_NODE":57.1679,"ARG_OF_PERICENTER":86.5995,"MEAN_ANOMALY":273.5414,"EPHEMERIS_TYPE":0,"CLASSIFICATION_TYPE":"U","NORAD_CAT_ID":61612,"ELEMENT_SET_NO":999,"REV_AT_EPOCH":6956,"BSTAR":-0.0011903,"MEAN_MOTION_DOT":-4.03e-6,"MEAN_MOTION_DDOT":0},{"OBJECT_NAME":"ONEWEB-0708","OBJECT_ID":"2024-188V","EPOCH":"2026-03-04T00:23:41.324064","MEAN_MOTION":13.10375588,"ECCENTRICITY":0.0001985,"INCLINATION":87.8768,"RA_OF_ASC_NODE":57.2233,"ARG_OF_PERICENTER":70.7926,"MEAN_ANOMALY":289.3416,"EPHEMERIS_TYPE":0,"CLASSIFICATION_TYPE":"U","NORAD_CAT_ID":61613,"ELEMENT_SET_NO":999,"REV_AT_EPOCH":6952,"BSTAR":-0.0013973,"MEAN_MOTION_DOT":-4.75e-6,"MEAN_MOTION_DDOT":0}]
